[{"OBJECT_NAME":"STARLINK-32367","OBJECT_ID":"2024-154S","EPOCH":"2026-03-09T21:53:19.185504","MEAN_MOTION":15.30180811,"ECCENTRICITY":0.00010392,"INCLINATION":53.1602,"RA_OF_ASC_NODE":282.4782,"ARG_OF_PERICENTER":112.3854,"MEAN_ANOMALY":247.7257,"EPHEMERIS_TYPE":0,"CLASSIFICATION_TYPE":"U","NORAD_CAT_ID":60919,"ELEMENT_SET_NO":999,"REV_AT_EPOCH":8637,"BSTAR":-9.944849e-6,"MEAN_MOTION_DOT":-6.53e-6,"MEAN_MOTION_DDOT":0},{"OBJECT_NAME":"FENGYUN 1C DEB","OBJECT_ID":"1999-025DNE","EPOCH":"2026-03-03T04:32:20.578848","MEAN_MOTION":15.05751159,"ECCENTRICITY":0.01321557,"INCLINATION":98.9662,"RA_OF_ASC_NODE":53.9178,"ARG_OF_PERICENTER":282.0758,"MEAN_ANOMALY":76.5683,"EPHEMERIS_TYPE":0,"CLASSIFICATION_TYPE":"U","NORAD_CAT_ID":35174,"ELEMENT_SET_NO":999,"REV_AT_EPOCH":91373,"BSTAR":0.0030573957,"MEAN_MOTION_DOT":0.00054187,"MEAN_MOTION_DDOT":0}]
